{
  "type": "FeatureCollection",
  "features": [
    {
      "type": "Feature",
      "properties": {
        "norad_id": 15362,
        "name": "NOVA 3",
        "group": "nnss",
        "lat": 27.52594478739102,
        "lon": -99.33512809654583,
        "alt_km": 1193.7605278102037,
        "timestamp": "2025-12-18T08:58:43.680091+00:00",
        "meta_object_name": "NOVA 3",
        "meta_object_id": "1984-110A",
        "meta_epoch": "2025-12-17T20:07:30.630144",
        "meta_mean_motion": 13.23045117,
        "meta_eccentricity": 0.0030132,
        "meta_inclination": 90.1223,
        "meta_ra_of_asc_node": 80.5948,
        "meta_arg_of_pericenter": 317.3503,
        "meta_mean_anomaly": 165.714,
        "meta_ephemeris_type": 0,
        "meta_classification_type": "U",
        "meta_norad_cat_id": 15362,
        "meta_element_set_no": 999,
        "meta_rev_at_epoch": 98766,
        "meta_bstar": 0.00015438224,
        "meta_mean_motion_dot": 7.3e-07,
        "meta_mean_motion_ddot": 0,
        "tle_line1": "1 15362U 84110A   25351.83854896  .00000073  00000+0  15438-3 0  9991",
        "tle_line2": "2 15362  90.1223  80.5948 0030132 317.3503 165.7140 13.23045117987668"
      },
      "geometry": {
        "type": "Point",
        "coordinates": [
          -99.33512809654583,
          27.52594478739102
        ]
      }
    },
    {
      "type": "Feature",
      "properties": {
        "norad_id": 15935,
        "name": "OSCAR 30",
        "group": "nnss",
        "lat": 40.834087292391445,
        "lon": -79.91758619433203,
        "alt_km": 1077.2699106440068,
        "timestamp": "2025-12-18T08:58:43.680102+00:00",
        "meta_object_name": "OSCAR 30",
        "meta_object_id": "1985-066A",
        "meta_epoch": "2025-12-17T18:40:36.967296",
        "meta_mean_motion": 13.36079113,
        "meta_eccentricity": 0.0169301,
        "meta_inclination": 90.1656,
        "meta_ra_of_asc_node": 99.9295,
        "meta_arg_of_pericenter": 69.8472,
        "meta_mean_anomaly": 82.8303,
        "meta_ephemeris_type": 0,
        "meta_classification_type": "U",
        "meta_norad_cat_id": 15935,
        "meta_element_set_no": 999,
        "meta_rev_at_epoch": 96520,
        "meta_bstar": 0.00011274716,
        "meta_mean_motion_dot": 7.3e-07,
        "meta_mean_motion_ddot": 0,
        "tle_line1": "1 15935U 85066A   25351.77820564  .00000073  00000+0  11275-3 0  9991",
        "tle_line2": "2 15935  90.1656  99.9295 0169301  69.8472  82.8303 13.36079113965201"
      },
      "geometry": {
        "type": "Point",
        "coordinates": [
          -79.91758619433203,
          40.834087292391445
        ]
      }
    },
    {
      "type": "Feature",
      "properties": {
        "norad_id": 15936,
        "name": "OSCAR 24",
        "group": "nnss",
        "lat": -31.1711822526926,
        "lon": -87.70348157558034,
        "alt_km": 1222.137989220665,
        "timestamp": "2025-12-18T08:58:43.680112+00:00",
        "meta_object_name": "OSCAR 24",
        "meta_object_id": "1985-066B",
        "meta_epoch": "2025-12-17T19:56:01.480416",
        "meta_mean_motion": 13.35936476,
        "meta_eccentricity": 0.01704059,
        "meta_inclination": 90.1792,
        "meta_ra_of_asc_node": 92.3954,
        "meta_arg_of_pericenter": 76.1344,
        "meta_mean_anomaly": 41.0064,
        "meta_ephemeris_type": 0,
        "meta_classification_type": "U",
        "meta_norad_cat_id": 15936,
        "meta_element_set_no": 999,
        "meta_rev_at_epoch": 96711,
        "meta_bstar": 8.7400764e-05,
        "meta_mean_motion_dot": 5.9e-07,
        "meta_mean_motion_ddot": 0,
        "tle_line1": "1 15936U 85066B   25351.83057269  .00000059  00000+0  87401-4 0  9992",
        "tle_line2": "2 15936  90.1792  92.3954 0170405  76.1344  41.0064 13.35936476967114"
      },
      "geometry": {
        "type": "Point",
        "coordinates": [
          -87.70348157558034,
          -31.1711822526926
        ]
      }
    },
    {
      "type": "Feature",
      "properties": {
        "norad_id": 17070,
        "name": "POLAR BEAR",
        "group": "nnss",
        "lat": 57.68153359107248,
        "lon": 2.9423484288723194,
        "alt_km": 946.6880398076273,
        "timestamp": "2025-12-18T08:58:43.680123+00:00",
        "meta_object_name": "POLAR BEAR",
        "meta_object_id": "1986-088A",
        "meta_epoch": "2025-12-17T13:26:31.356096",
        "meta_mean_motion": 13.75251777,
        "meta_eccentricity": 0.00412006,
        "meta_inclination": 89.6171,
        "meta_ra_of_asc_node": 183.5808,
        "meta_arg_of_pericenter": 105.3442,
        "meta_mean_anomaly": 309.0213,
        "meta_ephemeris_type": 0,
        "meta_classification_type": "U",
        "meta_norad_cat_id": 17070,
        "meta_element_set_no": 999,
        "meta_rev_at_epoch": 96045,
        "meta_bstar": 0.0001101085,
        "meta_mean_motion_dot": 1.18e-06,
        "meta_mean_motion_ddot": 0,
        "tle_line1": "1 17070U 86088A   25351.56008514  .00000118  00000+0  11011-3 0  9996",
        "tle_line2": "2 17070  89.6171 183.5808 0041200 105.3442 309.0213 13.75251777960455"
      },
      "geometry": {
        "type": "Point",
        "coordinates": [
          2.9423484288723194,
          57.68153359107248
        ]
      }
    },
    {
      "type": "Feature",
      "properties": {
        "norad_id": 18361,
        "name": "OSCAR 27",
        "group": "nnss",
        "lat": 56.1997548652082,
        "lon": -99.95771323198852,
        "alt_km": 1076.6305848971124,
        "timestamp": "2025-12-18T08:58:43.680132+00:00",
        "meta_object_name": "OSCAR 27",
        "meta_object_id": "1987-080A",
        "meta_epoch": "2025-12-17T18:04:20.594496",
        "meta_mean_motion": 13.44907706,
        "meta_eccentricity": 0.01033075,
        "meta_inclination": 90.3741,
        "meta_ra_of_asc_node": 79.4599,
        "meta_arg_of_pericenter": 209.3206,
        "meta_mean_anomaly": 150.2121,
        "meta_ephemeris_type": 0,
        "meta_classification_type": "U",
        "meta_norad_cat_id": 18361,
        "meta_element_set_no": 999,
        "meta_rev_at_epoch": 87624,
        "meta_bstar": 0.00014109203,
        "meta_mean_motion_dot": 9.3e-07,
        "meta_mean_motion_ddot": 0,
        "tle_line1": "1 18361U 87080A   25351.75301614  .00000093  00000+0  14109-3 0  9994",
        "tle_line2": "2 18361  90.3741  79.4599 0103307 209.3206 150.2121 13.44907706876244"
      },
      "geometry": {
        "type": "Point",
        "coordinates": [
          -99.95771323198852,
          56.1997548652082
        ]
      }
    },
    {
      "type": "Feature",
      "properties": {
        "norad_id": 18362,
        "name": "OSCAR 29",
        "group": "nnss",
        "lat": 53.269769793887754,
        "lon": -99.5543777282641,
        "alt_km": 1106.1011492257148,
        "timestamp": "2025-12-18T08:58:43.680142+00:00",
        "meta_object_name": "OSCAR 29",
        "meta_object_id": "1987-080B",
        "meta_epoch": "2025-12-17T18:39:30.047040",
        "meta_mean_motion": 13.44449295,
        "meta_eccentricity": 0.01042024,
        "meta_inclination": 90.3753,
        "meta_ra_of_asc_node": 79.92,
        "meta_arg_of_pericenter": 232.539,
        "meta_mean_anomaly": 249.026,
        "meta_ephemeris_type": 0,
        "meta_classification_type": "U",
        "meta_norad_cat_id": 18362,
        "meta_element_set_no": 999,
        "meta_rev_at_epoch": 87577,
        "meta_bstar": 0.00012494406,
        "meta_mean_motion_dot": 8.3e-07,
        "meta_mean_motion_ddot": 0,
        "tle_line1": "1 18362U 87080B   25351.77743110  .00000083  00000+0  12494-3 0  9992",
        "tle_line2": "2 18362  90.3753  79.9200 0104202 232.5390 249.0260 13.44449295875771"
      },
      "geometry": {
        "type": "Point",
        "coordinates": [
          -99.5543777282641,
          53.269769793887754
        ]
      }
    },
    {
      "type": "Feature",
      "properties": {
        "norad_id": 19070,
        "name": "OSCAR 23",
        "group": "nnss",
        "lat": -72.51231569084433,
        "lon": 17.586273513504945,
        "alt_km": 1239.0796106669177,
        "timestamp": "2025-12-18T08:58:43.680152+00:00",
        "meta_object_name": "OSCAR 23",
        "meta_object_id": "1988-033A",
        "meta_epoch": "2025-12-17T15:51:37.554912",
        "meta_mean_motion": 13.27787939,
        "meta_eccentricity": 0.01899396,
        "meta_inclination": 90.3208,
        "meta_ra_of_asc_node": 16.5452,
        "meta_arg_of_pericenter": 166.2513,
        "meta_mean_anomaly": 311.9864,
        "meta_ephemeris_type": 0,
        "meta_classification_type": "U",
        "meta_norad_cat_id": 19070,
        "meta_element_set_no": 999,
        "meta_rev_at_epoch": 82318,
        "meta_bstar": 0.00016409771,
        "meta_mean_motion_dot": 9.1e-07,
        "meta_mean_motion_ddot": 0,
        "tle_line1": "1 19070U 88033A   25351.66085133  .00000091  00000+0  16410-3 0  9991",
        "tle_line2": "2 19070  90.3208  16.5452 0189939 166.2513 311.9864 13.27787939823187"
      },
      "geometry": {
        "type": "Point",
        "coordinates": [
          17.586273513504945,
          -72.51231569084433
        ]
      }
    }
  ]
}